[{"OBJECT_NAME":"SMOS","OBJECT_ID":"2009-059A","EPOCH":"2026-03-02T13:58:47.377920","MEAN_MOTION":14.39753933,"ECCENTRICITY":0.000106,"INCLINATION":98.4425,"RA_OF_ASC_NODE":250.4627,"ARG_OF_PERICENTER":80.9164,"MEAN_ANOMALY":279.2144,"EPHEMERIS_TYPE":0,"CLASSIFICATION_TYPE":"U","NORAD_CAT_ID":36036,"ELEMENT_SET_NO":999,"REV_AT_EPOCH":85811,"BSTAR":0.00013841,"MEAN_MOTION_DOT":3.9e-6,"MEAN_MOTION_DDOT":0},{"OBJECT_NAME":"YAOGAN-7","OBJECT_ID":"2009-069A","EPOCH":"2026-03-02T15:51:41.039424","MEAN_MOTION":14.77878186,"ECCENTRICITY":0.00253,"INCLINATION":98.0224,"RA_OF_ASC_NODE":308.1055,"ARG_OF_PERICENTER":25.6987,"MEAN_ANOMALY":334.5475,"EPHEMERIS_TYPE":0,"CLASSIFICATION_TYPE":"U","NORAD_CAT_ID":36110,"ELEMENT_SET_NO":999,"REV_AT_EPOCH":87389,"BSTAR":0.00013309,"MEAN_MOTION_DOT":9.09e-6,"MEAN_MOTION_DDOT":0},{"OBJECT_NAME":"TANDEM-X","OBJECT_ID":"2010-030A","EPOCH":"2026-03-02T13:13:23.428704","MEAN_MOTION":15.19147252,"ECCENTRICITY":0.0001842,"INCLINATION":97.4472,"RA_OF_ASC_NODE":70.7755,"ARG_OF_PERICENTER":94.8863,"MEAN_ANOMALY":265.2582,"EPHEMERIS_TYPE":0,"CLASSIFICATION_TYPE":"U","NORAD_CAT_ID":36605,"ELEMENT_SET_NO":999,"REV_AT_EPOCH":87045,"BSTAR":6.0498e-5,"MEAN_MOTION_DOT":1.203e-5,"MEAN_MOTION_DDOT":0},{"OBJECT_NAME":"CARTOSAT-2B","OBJECT_ID":"2010-035A","EPOCH":"2026-03-02T19:50:34.356192","MEAN_MOTION":14.78691179,"ECCENTRICITY":0.0011554,"INCLINATION":97.8462,"RA_OF_ASC_NODE":113.261,"ARG_OF_PERICENTER":170.6704,"MEAN_ANOMALY":189.4724,"EPHEMERIS_TYPE":0,"CLASSIFICATION_TYPE":"U","NORAD_CAT_ID":36795,"ELEMENT_SET_NO":999,"REV_AT_EPOCH":84413,"BSTAR":3.7445e-5,"MEAN_MOTION_DOT":2.24e-6,"MEAN_MOTION_DDOT":0},{"OBJECT_NAME":"YAOGAN-10","OBJECT_ID":"2010-038A","EPOCH":"2026-03-02T21:35:06.347328","MEAN_MOTION":14.84981773,"ECCENTRICITY":0.000173,"INCLINATION":97.9087,"RA_OF_ASC_NODE":86.1228,"ARG_OF_PERICENTER":91.6638,"MEAN_ANOMALY":318.0974,"EPHEMERIS_TYPE":0,"CLASSIFICATION_TYPE":"U","NORAD_CAT_ID":36834,"ELEMENT_SET_NO":999,"REV_AT_EPOCH":84143,"BSTAR":0.00037258,"MEAN_MOTION_DOT":3.123e-5,"MEAN_MOTION_DDOT":0},{"OBJECT_NAME":"COSMO-SKYMED 4","OBJECT_ID":"2010-060A","EPOCH":"2026-03-02T20:16:15.257856","MEAN_MOTION":14.82150489,"ECCENTRICITY":0.000137,"INCLINATION":97.8854,"RA_OF_ASC_NODE":246.9801,"ARG_OF_PERICENTER":82.7706,"MEAN_ANOMALY":277.3662,"EPHEMERIS_TYPE":0,"CLASSIFICATION_TYPE":"U","NORAD_CAT_ID":37216,"ELEMENT_SET_NO":999,"REV_AT_EPOCH":82881,"BSTAR":5.5017e-5,"MEAN_MOTION_DOT":3.86e-6,"MEAN_MOTION_DDOT":0},{"OBJECT_NAME":"RESOURCESAT-2","OBJECT_ID":"2011-015A","EPOCH":"2026-03-02T17:50:59.036640","MEAN_MOTION":14.21485869,"ECCENTRICITY":0.0006078,"INCLINATION":98.7736,"RA_OF_ASC_NODE":129.8746,"ARG_OF_PERICENTER":157.1599,"MEAN_ANOMALY":202.9849,"EPHEMERIS_TYPE":0,"CLASSIFICATION_TYPE":"U","NORAD_CAT_ID":37387,"ELEMENT_SET_NO":999,"REV_AT_EPOCH":77105,"BSTAR":-9.2777e-5,"MEAN_MOTION_DOT":-2.47e-6,"MEAN_MOTION_DDOT":0},{"OBJECT_NAME":"HAIYANG-2A","OBJECT_ID":"2011-043A","EPOCH":"2026-03-02T07:27:33.194304","MEAN_MOTION":13.7856692,"ECCENTRICITY":5.564e-5,"INCLINATION":99.3409,"RA_OF_ASC_NODE":66.0284,"ARG_OF_PERICENTER":292.1226,"MEAN_ANOMALY":67.9866,"EPHEMERIS_TYPE":0,"CLASSIFICATION_TYPE":"U","NORAD_CAT_ID":37781,"ELEMENT_SET_NO":999,"REV_AT_EPOCH":73195,"BSTAR":0.00034804958,"MEAN_MOTION_DOT":3.09e-6,"MEAN_MOTION_DDOT":0},{"OBJECT_NAME":"RASAT","OBJECT_ID":"2011-044D","EPOCH":"2026-03-02T20:48:02.586240","MEAN_MOTION":14.6804458,"ECCENTRICITY":0.0020865,"INCLINATION":98.0568,"RA_OF_ASC_NODE":154.913,"ARG_OF_PERICENTER":166.0536,"MEAN_ANOMALY":318.4816,"EPHEMERIS_TYPE":0,"CLASSIFICATION_TYPE":"U","NORAD_CAT_ID":37791,"ELEMENT_SET_NO":999,"REV_AT_EPOCH":77758,"BSTAR":0.00017354,"MEAN_MOTION_DOT":9.5e-6,"MEAN_MOTION_DDOT":0},{"OBJECT_NAME":"SRMSAT","OBJECT_ID":"2011-058D","EPOCH":"2026-03-02T12:01:09.925248","MEAN_MOTION":14.11544423,"ECCENTRICITY":0.0011888,"INCLINATION":19.9732,"RA_OF_ASC_NODE":345.2138,"ARG_OF_PERICENTER":110.4701,"MEAN_ANOMALY":67.1482,"EPHEMERIS_TYPE":0,"CLASSIFICATION_TYPE":"U","NORAD_CAT_ID":37841,"ELEMENT_SET_NO":999,"REV_AT_EPOCH":74272,"BSTAR":0.00011390903,"MEAN_MOTION_DOT":4.75e-6,"MEAN_MOTION_DDOT":0},{"OBJECT_NAME":"PLEIADES 1A","OBJECT_ID":"2011-076F","EPOCH":"2026-03-02T20:59:56.537088","MEAN_MOTION":14.58532159,"ECCENTRICITY":0.000167,"INCLINATION":98.2064,"RA_OF_ASC_NODE":138.3744,"ARG_OF_PERICENTER":93.2007,"MEAN_ANOMALY":39.615,"EPHEMERIS_TYPE":0,"CLASSIFICATION_TYPE":"U","NORAD_CAT_ID":38012,"ELEMENT_SET_NO":999,"REV_AT_EPOCH":75649,"BSTAR":8.2054e-5,"MEAN_MOTION_DOT":3.35e-6,"MEAN_MOTION_DDOT":0},{"OBJECT_NAME":"ZIYUAN 1-02C (ZY 1-02C)","OBJECT_ID":"2011-079A","EPOCH":"2026-03-02T20:24:23.390208","MEAN_MOTION":14.38114269,"ECCENTRICITY":0.0005255,"INCLINATION":98.4194,"RA_OF_ASC_NODE":131.3405,"ARG_OF_PERICENTER":265.072,"MEAN_ANOMALY":223.2321,"EPHEMERIS_TYPE":0,"CLASSIFICATION_TYPE":"U","NORAD_CAT_ID":38038,"ELEMENT_SET_NO":999,"REV_AT_EPOCH":74392,"BSTAR":0.00013803,"MEAN_MOTION_DOT":3.75e-6,"MEAN_MOTION_DDOT":0},{"OBJECT_NAME":"ARIRANG-3 (KOMPSAT-3)","OBJECT_ID":"2012-025B","EPOCH":"2026-03-02T19:47:36.328128","MEAN_MOTION":14.62091222,"ECCENTRICITY":0.000676,"INCLINATION":98.1051,"RA_OF_ASC_NODE":21.2022,"ARG_OF_PERICENTER":88.0277,"MEAN_ANOMALY":272.1699,"EPHEMERIS_TYPE":0,"CLASSIFICATION_TYPE":"U","NORAD_CAT_ID":38338,"ELEMENT_SET_NO":999,"REV_AT_EPOCH":73580,"BSTAR":0.00024196,"MEAN_MOTION_DOT":1.169e-5,"MEAN_MOTION_DDOT":0},{"OBJECT_NAME":"EXACTVIEW-1 (ADS-1B)","OBJECT_ID":"2012-039C","EPOCH":"2026-03-02T19:01:25.022208","MEAN_MOTION":14.24947624,"ECCENTRICITY":0.0011872,"INCLINATION":98.9635,"RA_OF_ASC_NODE":176.8627,"ARG_OF_PERICENTER":116.5732,"MEAN_ANOMALY":243.6664,"EPHEMERIS_TYPE":0,"CLASSIFICATION_TYPE":"U","NORAD_CAT_ID":38709,"ELEMENT_SET_NO":999,"REV_AT_EPOCH":70755,"BSTAR":9.5857e-5,"MEAN_MOTION_DOT":1.78e-6,"MEAN_MOTION_DDOT":0},{"OBJECT_NAME":"SPOT 6","OBJECT_ID":"2012-047A","EPOCH":"2026-03-02T20:45:13.491936","MEAN_MOTION":14.58534551,"ECCENTRICITY":0.0001439,"INCLINATION":98.2242,"RA_OF_ASC_NODE":130.3678,"ARG_OF_PERICENTER":95.3814,"MEAN_ANOMALY":264.755,"EPHEMERIS_TYPE":0,"CLASSIFICATION_TYPE":"U","NORAD_CAT_ID":38755,"ELEMENT_SET_NO":999,"REV_AT_EPOCH":71755,"BSTAR":7.0347e-5,"MEAN_MOTION_DOT":2.81e-6,"MEAN_MOTION_DDOT":0},{"OBJECT_NAME":"PLEIADES 1B","OBJECT_ID":"2012-068A","EPOCH":"2026-03-02T19:34:00.592032","MEAN_MOTION":14.58576038,"ECCENTRICITY":0.0001607,"INCLINATION":98.2034,"RA_OF_ASC_NODE":138.3015,"ARG_OF_PERICENTER":89.9132,"MEAN_ANOMALY":270.2251,"EPHEMERIS_TYPE":0,"CLASSIFICATION_TYPE":"U","NORAD_CAT_ID":39019,"ELEMENT_SET_NO":999,"REV_AT_EPOCH":70534,"BSTAR":7.8264e-5,"MEAN_MOTION_DOT":3.18e-6,"MEAN_MOTION_DDOT":0},{"OBJECT_NAME":"GOKTURK 2","OBJECT_ID":"2012-073A","EPOCH":"2026-03-02T19:31:55.362144","MEAN_MOTION":14.75424572,"ECCENTRICITY":0.0001296,"INCLINATION":97.6887,"RA_OF_ASC_NODE":264.5311,"ARG_OF_PERICENTER":56.391,"MEAN_ANOMALY":303.7424,"EPHEMERIS_TYPE":0,"CLASSIFICATION_TYPE":"U","NORAD_CAT_ID":39030,"ELEMENT_SET_NO":999,"REV_AT_EPOCH":70882,"BSTAR":0.00016259,"MEAN_MOTION_DOT":1.057e-5,"MEAN_MOTION_DDOT":0}]
