SMOS                    
1 36036U 09059A   26061.58249280  .00000390  00000+0  13841-3 0  9995
2 36036  98.4425 250.4627 0001060  80.9164 279.2144 14.39753933858112
YAOGAN-7                
1 36110U 09069A   26061.66089166  .00000909  00000+0  13309-3 0  9998
2 36110  98.0224 308.1055 0025300  25.6987 334.5475 14.77878186873890
TANDEM-X                
1 36605U 10030A   26061.55096561  .00001203  00000+0  60498-4 0  9992
2 36605  97.4472  70.7755 0001842  94.8863 265.2582 15.19147252870450
CARTOSAT-2B             
1 36795U 10035A   26061.82678653  .00000224  00000+0  37445-4 0  9993
2 36795  97.8462 113.2610 0011554 170.6704 189.4724 14.78691179844131
YAOGAN-10               
1 36834U 10038A   26061.89937902  .00003123  00000+0  37258-3 0  9994
2 36834  97.9087  86.1228 0001730  91.6638 318.0974 14.84981773841431
COSMO-SKYMED 4          
1 37216U 10060A   26061.84462104  .00000386  00000+0  55017-4 0  9998
2 37216  97.8854 246.9801 0001370  82.7706 277.3662 14.82150489828815
RESOURCESAT-2           
1 37387U 11015A   26061.74373885 -.00000247  00000+0 -92777-4 0  9996
2 37387  98.7736 129.8746 0006078 157.1599 202.9849 14.21485869771057
HAIYANG-2A              
1 37781U 11043A   26061.31080086  .00000309  00000+0  34805-3 0  9990
2 37781  99.3409  66.0284 0000556 292.1226  67.9866 13.78566920731952
RASAT                   
1 37791U 11044D   26061.86669660  .00000950  00000+0  17354-3 0  9995
2 37791  98.0568 154.9130 0020865 166.0536 318.4816 14.68044580777581
SRMSAT                  
1 37841U 11058D   26061.50080932  .00000475  00000+0  11391-3 0  9993
2 37841  19.9732 345.2138 0011888 110.4701  67.1482 14.11544423742721
PLEIADES 1A             
1 38012U 11076F   26061.87495992  .00000335  00000+0  82054-4 0  9990
2 38012  98.2064 138.3744 0001670  93.2007  39.6150 14.58532159756498
ZIYUAN 1-02C (ZY 1-02C) 
1 38038U 11079A   26061.85027072  .00000375  00000+0  13803-3 0  9998
2 38038  98.4194 131.3405 0005255 265.0720 223.2321 14.38114269743924
ARIRANG-3 (KOMPSAT-3)   
1 38338U 12025B   26061.82472602  .00001169  00000+0  24196-3 0  9992
2 38338  98.1051  21.2022 0006760  88.0277 272.1699 14.62091222735809
EXACTVIEW-1 (ADS-1B)    
1 38709U 12039C   26061.79265072  .00000178  00000+0  95857-4 0  9998
2 38709  98.9635 176.8627 0011872 116.5732 243.6664 14.24947624707558
SPOT 6                  
1 38755U 12047A   26061.86473949  .00000281  00000+0  70347-4 0  9992
2 38755  98.2242 130.3678 0001439  95.3814 264.7550 14.58534551717557
PLEIADES 1B             
1 39019U 12068A   26061.81528463  .00000318  00000+0  78264-4 0  9993
2 39019  98.2034 138.3015 0001607  89.9132 270.2251 14.58576038705342
GOKTURK 2               
1 39030U 12073A   26061.81383521  .00001057  00000+0  16259-3 0  9992
2 39030  97.6887 264.5311 0001296  56.3910 303.7424 14.75424572708825
